YAOGAN-35 01A           
1 49390U 21101A   26068.78009532  .00012075  00000+0  47335-3 0  9995
2 49390  34.9903 183.8731 0005688 189.0601 171.0012 15.24952145241689
STARLINK-32534          
1 62175U 24225N   26068.63917315  .01409180  00000+0  10229+0 0  9998
2 62175  70.0029 164.7380 0009410 305.6720  54.3563 15.00407126 69868
